start=new Date('2022-05-20T00:00:00.000Z').valueOf();
sats=[{"APOAPSIS":"548.342","MEAN_MOTION_DOT":"-0.00002116","PERIAPSIS":"546.148","LAUNCH_DATE":"2021-05-26","MEAN_MOTION_DDOT":"0.0000000000000","NORAD_CAT_ID":"48653","MEAN_ANOMALY":"286.4782","RA_OF_ASC_NODE":"241.7748","REF_FRAME":"TEME","TIME_SYSTEM":"UTC","BSTAR":"-0.00012321000000","OBJECT_NAME":"STARLINK-2720","ARG_OF_PERICENTER":"73.6381","EPOCH":"2022-05-19T15:29:35.634048","OBJECT_TYPE":"PAYLOAD","CENTER_NAME":"EARTH","COUNTRY_CODE":"US","TLE_LINE2":"2 48653  53.0554 241.7748 0001584  73.6381 286.4782 15.06389653 55035","OBJECT_ID":"2021-044R","SEMIMAJOR_AXIS":"6925.380","ECCENTRICITY":"0.00015840","GP_ID":"203961455","EPHEMERIS_TYPE":"0","PERIOD":"95.593","INCLINATION":"53.0554","TLE_LINE1":"1 48653U 21044R   22139.64555132 -.00002116  00000-0 -12321-3 0  9999","CLASSIFICATION_TYPE":"U","REV_AT_EPOCH":"5503","ELEMENT_SET_NO":"999","SITE":"AFETR","MEAN_MOTION":"15.06389653","FILE":"3453614","MEAN_ELEMENT_THEORY":"SGP4","RCS_SIZE":"LARGE","DECAY_DATE":null},{"OBJECT_ID":"2021-044S","SEMIMAJOR_AXIS":"6925.384","ECCENTRICITY":"0.00015780","TLE_LINE2":"2 48654  53.0538 241.1935 0001578  81.8608 278.2560 15.06388335 55114","PERIOD":"95.593","INCLINATION":"53.0538","EPHEMERIS_TYPE":"0","GP_ID":"203951325","TLE_LINE1":"1 48654U 21044S   22139.77456004 -.00001777  00000-0 -10046-3 0  9996","CLASSIFICATION_TYPE":"U","FILE":"3453194","RCS_SIZE":"LARGE","MEAN_ELEMENT_THEORY":"SGP4","DECAY_DATE":null,"REV_AT_EPOCH":"5511","ELEMENT_SET_NO":"999","SITE":"AFETR","MEAN_MOTION":"15.06388335","PERIAPSIS":"546.156","LAUNCH_DATE":"2021-05-26","NORAD_CAT_ID":"48654","MEAN_MOTION_DDOT":"0.0000000000000","MEAN_MOTION_DOT":"-0.00001777","APOAPSIS":"548.342","REF_FRAME":"TEME","RA_OF_ASC_NODE":"241.1935","MEAN_ANOMALY":"278.2560","ARG_OF_PERICENTER":"81.8608","OBJECT_NAME":"STARLINK-2651","BSTAR":"-0.00010046000000","EPOCH":"2022-05-19T18:35:21.987456","TIME_SYSTEM":"UTC","COUNTRY_CODE":"US","OBJECT_TYPE":"PAYLOAD","CENTER_NAME":"EARTH"},{"TLE_LINE2":"2 48655  53.0545 241.2186 0001605  74.9607 285.1560 15.06390565 55053","ECCENTRICITY":"0.00016050","OBJECT_ID":"2021-044T","SEMIMAJOR_AXIS":"6925.377","EPHEMERIS_TYPE":"0","GP_ID":"203951328","PERIOD":"95.593","INCLINATION":"53.0545","CLASSIFICATION_TYPE":"U","TLE_LINE1":"1 48655U 21044T   22139.77087911 -.00000548  00000-0 -17880-4 0  9993","SITE":"AFETR","ELEMENT_SET_NO":"999","MEAN_MOTION":"15.06390565","REV_AT_EPOCH":"5505","DECAY_DATE":null,"RCS_SIZE":"LARGE","FILE":"3453194","MEAN_ELEMENT_THEORY":"SGP4","MEAN_MOTION_DOT":"-0.00000548","APOAPSIS":"548.354","MEAN_MOTION_DDOT":"0.0000000000000","NORAD_CAT_ID":"48655","LAUNCH_DATE":"2021-05-26","PERIAPSIS":"546.131","REF_FRAME":"TEME","MEAN_ANOMALY":"285.1560","RA_OF_ASC_NODE":"241.2186","TIME_SYSTEM":"UTC","EPOCH":"2022-05-19T18:30:03.955104","OBJECT_NAME":"STARLINK-2657","ARG_OF_PERICENTER":"74.9607","BSTAR":"-0.00001788000000","CENTER_NAME":"EARTH","OBJECT_TYPE":"PAYLOAD","COUNTRY_CODE":"US"},{"ECCENTRICITY":"0.00017120","OBJECT_ID":"2021-044U","SEMIMAJOR_AXIS":"6925.391","TLE_LINE2":"2 48656  53.0564 241.2315 0001712  75.4528 284.6651 15.06386282 55052","PERIOD":"95.593","INCLINATION":"53.0564","EPHEMERIS_TYPE":"0","GP_ID":"203950885","CLASSIFICATION_TYPE":"U","TLE_LINE1":"1 48656U 21044U   22139.76719559  .00000390  00000-0  45069-4 0  9996","DECAY_DATE":null,"MEAN_ELEMENT_THEORY":"SGP4","FILE":"3453198","RCS_SIZE":"LARGE","SITE":"AFETR","ELEMENT_SET_NO":"999","MEAN_MOTION":"15.06386282","REV_AT_EPOCH":"5505","MEAN_MOTION_DDOT":"0.0000000000000","NORAD_CAT_ID":"48656","PERIAPSIS":"546.070","LAUNCH_DATE":"2021-05-26","MEAN_MOTION_DOT":"0.00000390","APOAPSIS":"548.441","REF_FRAME":"TEME","RA_OF_ASC_NODE":"241.2315","MEAN_ANOMALY":"284.6651","EPOCH":"2022-05-19T18:24:45.698976","ARG_OF_PERICENTER":"75.4528","OBJECT_NAME":"STARLINK-2701","BSTAR":"0.00004506900000","TIME_SYSTEM":"UTC","COUNTRY_CODE":"US","OBJECT_TYPE":"PAYLOAD","CENTER_NAME":"EARTH"},{"MEAN_MOTION_DDOT":"0.0000000000000","NORAD_CAT_ID":"48657","PERIAPSIS":"546.094","LAUNCH_DATE":"2021-05-26","MEAN_MOTION_DOT":"0.00002007","APOAPSIS":"548.383","REF_FRAME":"TEME","MEAN_ANOMALY":"289.3712","RA_OF_ASC_NODE":"242.1400","EPOCH":"2022-05-19T13:32:49.817472","ARG_OF_PERICENTER":"70.7456","OBJECT_NAME":"STARLINK-2734","BSTAR":"0.00015364000000","TIME_SYSTEM":"UTC","COUNTRY_CODE":"US","CENTER_NAME":"EARTH","OBJECT_TYPE":"PAYLOAD","ECCENTRICITY":"0.00016530","OBJECT_ID":"2021-044V","SEMIMAJOR_AXIS":"6925.373","TLE_LINE2":"2 48657  53.0539 242.1400 0001653  70.7456 289.3712 15.06391914 55083","INCLINATION":"53.0539","PERIOD":"95.593","EPHEMERIS_TYPE":"0","GP_ID":"203950889","CLASSIFICATION_TYPE":"U","TLE_LINE1":"1 48657U 21044V   22139.56446548  .00002007  00000-0  15364-3 0  9991","DECAY_DATE":null,"RCS_SIZE":"LARGE","FILE":"3453198","MEAN_ELEMENT_THEORY":"SGP4","SITE":"AFETR","ELEMENT_SET_NO":"999","MEAN_MOTION":"15.06391914","REV_AT_EPOCH":"5508"},{"TLE_LINE1":"1 48658U 21044W   22139.56077032  .00002867  00000-0  21126-3 0  9997","CLASSIFICATION_TYPE":"U","REV_AT_EPOCH":"5508","MEAN_MOTION":"15.06408033","SITE":"AFETR","ELEMENT_SET_NO":"999","FILE":"3453199","RCS_SIZE":"LARGE","MEAN_ELEMENT_THEORY":"SGP4","DECAY_DATE":null,"TLE_LINE2":"2 48658  53.0532 242.1595 0001737  57.2361 302.8795 15.06408033 55083","SEMIMAJOR_AXIS":"6925.324","OBJECT_ID":"2021-044W","ECCENTRICITY":"0.00017370","GP_ID":"203951411","EPHEMERIS_TYPE":"0","INCLINATION":"53.0532","PERIOD":"95.592","TIME_SYSTEM":"UTC","BSTAR":"0.00021126000000","OBJECT_NAME":"STARLINK-2647","ARG_OF_PERICENTER":"57.2361","EPOCH":"2022-05-19T13:27:30.555648","CENTER_NAME":"EARTH","OBJECT_TYPE":"PAYLOAD","COUNTRY_CODE":"US","APOAPSIS":"548.392","MEAN_MOTION_DOT":"0.00002867","LAUNCH_DATE":"2021-05-26","PERIAPSIS":"545.986","MEAN_MOTION_DDOT":"0.0000000000000","NORAD_CAT_ID":"48658","RA_OF_ASC_NODE":"242.1595","MEAN_ANOMALY":"302.8795","REF_FRAME":"TEME"},{"PERIOD":"95.593","INCLINATION":"53.0539","EPHEMERIS_TYPE":"0","GP_ID":"203988426","ECCENTRICITY":"0.00015600","OBJECT_ID":"2021-044X","SEMIMAJOR_AXIS":"6925.384","TLE_LINE2":"2 48659  53.0539 241.8742 0001560  77.3909 282.7254 15.06388274 54197","DECAY_DATE":null,"MEAN_ELEMENT_THEORY":"SGP4","FILE":"3453812","RCS_SIZE":"LARGE","SITE":"AFETR","ELEMENT_SET_NO":"999","MEAN_MOTION":"15.06388274","REV_AT_EPOCH":"5419","CLASSIFICATION_TYPE":"U","TLE_LINE1":"1 48659U 21044X   22139.62344272 -.00001536  00000-0 -84250-4 0  9990","REF_FRAME":"TEME","MEAN_ANOMALY":"282.7254","RA_OF_ASC_NODE":"241.8742","NORAD_CAT_ID":"48659","MEAN_MOTION_DDOT":"0.0000000000000","LAUNCH_DATE":"2021-05-26","PERIAPSIS":"546.169","MEAN_MOTION_DOT":"-0.00001536","APOAPSIS":"548.330","COUNTRY_CODE":"US","OBJECT_TYPE":"PAYLOAD","CENTER_NAME":"EARTH","EPOCH":"2022-05-19T14:57:45.451008","OBJECT_NAME":"STARLINK-2717","ARG_OF_PERICENTER":"77.3909","BSTAR":"-0.00008425000000","TIME_SYSTEM":"UTC"},{"ECCENTRICITY":"0.00015070","OBJECT_ID":"2021-044Y","SEMIMAJOR_AXIS":"6925.360","TLE_LINE2":"2 48660  53.0535 241.2981 0001507  71.2868 288.8285 15.06396214 55052","PERIOD":"95.592","INCLINATION":"53.0535","GP_ID":"203950932","EPHEMERIS_TYPE":"0","CLASSIFICATION_TYPE":"U","TLE_LINE1":"1 48660U 21044Y   22139.75244392 -.00000169  00000-0  75696-5 0  9993","DECAY_DATE":null,"MEAN_ELEMENT_THEORY":"SGP4","FILE":"3453201","RCS_SIZE":"LARGE","SITE":"AFETR","MEAN_MOTION":"15.06396214","ELEMENT_SET_NO":"999","REV_AT_EPOCH":"5505","NORAD_CAT_ID":"48660","MEAN_MOTION_DDOT":"0.0000000000000","LAUNCH_DATE":"2021-05-26","PERIAPSIS":"546.182","APOAPSIS":"548.269","MEAN_MOTION_DOT":"-0.00000169","RA_OF_ASC_NODE":"241.2981","MEAN_ANOMALY":"288.8285","REF_FRAME":"TEME","EPOCH":"2022-05-19T18:03:31.154688","BSTAR":"0.00000756960000","ARG_OF_PERICENTER":"71.2868","OBJECT_NAME":"STARLINK-2688","TIME_SYSTEM":"UTC","COUNTRY_CODE":"US","OBJECT_TYPE":"PAYLOAD","CENTER_NAME":"EARTH"},{"REV_AT_EPOCH":"5433","SITE":"AFETR","MEAN_MOTION":"15.06406615","ELEMENT_SET_NO":"999","FILE":"3453812","RCS_SIZE":"LARGE","MEAN_ELEMENT_THEORY":"SGP4","DECAY_DATE":null,"TLE_LINE1":"1 48661U 21044Z   22139.62066047 -.00000617  00000-0 -22513-4 0  9997","CLASSIFICATION_TYPE":"U","GP_ID":"203986926","EPHEMERIS_TYPE":"0","PERIOD":"95.592","INCLINATION":"53.0521","TLE_LINE2":"2 48661  53.0521 231.8875 0001838  46.2009 313.9132 15.06406615 54339","OBJECT_ID":"2021-044Z","SEMIMAJOR_AXIS":"6925.328","ECCENTRICITY":"0.00018380","CENTER_NAME":"EARTH","OBJECT_TYPE":"PAYLOAD","COUNTRY_CODE":"US","TIME_SYSTEM":"UTC","BSTAR":"-0.00002251300000","OBJECT_NAME":"STARLINK-2708","ARG_OF_PERICENTER":"46.2009","EPOCH":"2022-05-19T14:53:45.064608","MEAN_ANOMALY":"313.9132","RA_OF_ASC_NODE":"231.8875","REF_FRAME":"TEME","APOAPSIS":"548.466","MEAN_MOTION_DOT":"-0.00000617","PERIAPSIS":"545.920","LAUNCH_DATE":"2021-05-26","MEAN_MOTION_DDOT":"0.0000000000000","NORAD_CAT_ID":"48661"},{"TLE_LINE2":"2 48662  53.0541 232.2038 0001553  67.5459 292.5694 15.06407976 55165","SEMIMAJOR_AXIS":"6925.324","OBJECT_ID":"2021-044AA","ECCENTRICITY":"0.00015530","EPHEMERIS_TYPE":"0","GP_ID":"203950983","PERIOD":"95.592","INCLINATION":"53.0541","TLE_LINE1":"1 48662U 21044AA  22139.55063415  .00002568  00000-0  19119-3 0  9998","CLASSIFICATION_TYPE":"U","REV_AT_EPOCH":"5516","SITE":"AFETR","MEAN_MOTION":"15.06407976","ELEMENT_SET_NO":"999","RCS_SIZE":"LARGE","FILE":"3453204","MEAN_ELEMENT_THEORY":"SGP4","DECAY_DATE":null,"MEAN_MOTION_DOT":"0.00002568","APOAPSIS":"548.265","PERIAPSIS":"546.114","LAUNCH_DATE":"2021-05-26","MEAN_MOTION_DDOT":"0.0000000000000","NORAD_CAT_ID":"48662","REF_FRAME":"TEME","MEAN_ANOMALY":"292.5694","RA_OF_ASC_NODE":"232.2038","TIME_SYSTEM":"UTC","OBJECT_NAME":"STARLINK-2726","ARG_OF_PERICENTER":"67.5459","BSTAR":"0.00019119000000","EPOCH":"2022-05-19T13:12:54.790560","OBJECT_TYPE":"PAYLOAD","CENTER_NAME":"EARTH","COUNTRY_CODE":"US"}];
